PERSEUS-M1              
1 40039U 14033AF  26130.83667343  .00001112  00000+0  10571-3 0  9990
2 40039  97.9624  74.3646 0012891  64.6705 295.5848 14.95503129645054
POLYITAN-1              
1 40042U 14033AJ  26130.57468983  .00010927  00000+0  35666-3 0  9990
2 40042  98.0978 153.3158 0005347 277.5512  82.5120 15.31965930647835
TIGRISAT                
1 40043U 14033AK  26130.85573042  .00001559  00000+0  18531-3 0  9998
2 40043  97.7788 281.7372 0049106 195.5507 164.4202 14.85001024640083
AEROCUBE 6A             
1 40045U 14033AM  26130.41380441  .00004970  00000+0  42246-3 0  9991
2 40045  97.7211 297.7835 0040157 140.2144 220.2035 14.97684750640966
AEROCUBE 6B             
1 40046U 14033AN  26130.45247083  .00004048  00000+0  33322-3 0  9991
2 40046  97.7177 297.5373 0037731 133.5047 226.9323 14.99109786641107
CANX-4                  
1 40055U 14034C   26130.59281713  .00000582  00000+0  82048-4 0  9994
2 40055  98.3173   4.5182 0013790 128.2464 231.9991 14.81194255638960
CANX-5                  
1 40056U 14034D   26130.59168392  .00000575  00000+0  81192-4 0  9993
2 40056  98.3174   4.5582 0013778 128.4761 231.7688 14.81211245629773
UKUBE-1                 
1 40074U 14037F   26130.74158785  .00005684  00000+0  32678-3 0  9998
2 40074  98.4250 130.1001 0000524  42.2821 317.8447 15.12952389642899
BRITE-PL2 (HEWELIUSZ)   
1 40119U 14049B   26130.81280477  .00001024  00000+0  10038-3 0  9993
2 40119  97.9055 242.5376 0012950 229.9004 130.1081 14.94453480635868
AEROCUBE 5C             
1 40965U 15058B   26130.81963034  .00002123  00000+0  19649-3 0  9998
2 40965  64.7690  18.8194 0129752  77.9708 283.5911 14.91239352360088
AEROCUBE 7              
1 40966U 15058C   26130.85485777  .00002980  00000+0  24717-3 0  9999
2 40966  64.7640   1.7225 0119554  76.6463 284.7947 14.95433094360370
FOX-1A (AO-85)          
1 40967U 15058D   26130.85498677  .00002208  00000+0  20677-3 0  9997
2 40967  64.7766  34.9796 0128900  71.2353 290.2693 14.90747135108004
SINOD-D 1               
1 40968U 15058E   26130.77039163  .00003035  00000+0  25154-3 0  9994
2 40968  64.7770  16.0599 0117386  68.0693 293.2851 14.95610211111067
SNAP-3 ALICE            
1 40970U 15058G   26130.64114278  .00050121  00000+0  77559-3 0  9998
2 40970  64.7528 232.9292 0032559  32.1820 328.1300 15.53151617111042
LMRST-SAT               
1 40971U 15058H   26130.86797360  .00002187  00000+0  20611-3 0  9998
2 40971  64.7773  31.2073 0130675  73.2531 288.2872 14.90372621107994
SNAP-3 EDDIE            
1 40972U 15058J   26130.59536787  .00053661  00000+0  79497-3 0  9992
2 40972  64.7445 224.0779 0033067  35.9018 324.4338 15.54300227113179
PROPCUBE 3              
1 40973U 15058K   26130.86077845  .00002626  00000+0  22631-3 0  9991
2 40973  64.7702   9.1345 0122884  74.7769 286.6893 14.94000072109221
BISONSAT                
1 40974U 15058L   26130.82242936  .00008017  00000+0  40039-3 0  9995
2 40974  64.7597 294.3681 0078621  63.5641 297.3522 15.15431249109955
SNAP-3 JIMI             
1 40975U 15058M   26130.70602737  .00004319  00000+0  30523-3 0  9990
2 40975  64.7664 338.3248 0104853  70.9093 290.3343 15.01911646108591
PROPCUBE 1 (FLORA)      
1 40976U 15058N   26130.85575029  .00002055  00000+0  20215-3 0  9992
2 40976  64.7757  50.9152 0129500  75.5351 286.0089 14.89007044110708
SINOD-D 3               
1 40977U 15058P   26130.81905037  .00002806  00000+0  24517-3 0  9998
2 40977  64.7741  32.4810 0117980  73.0521 288.3485 14.93727012109172
HORYU-4                 
1 41340U 16012D   26130.65330130  .00126567  00000+0  71947-3 0  9992
2 41340  30.9892 350.2294 0005757   4.8021 355.2690 15.77472816564855
RAVAN                   
1 41849U 16067B   26130.66808719  .00029652  00000+0  50576-3 0  9992
2 41849  97.9940  16.0100 0007195 125.7596 234.4324 15.51284164521873
CELTEE 1                
1 41850U 16067C   26130.60489382  .00003177  00000+0  15420-3 0  9992
2 41850  98.0723 354.6105 0001909  61.8027 298.3398 15.19309615520173
OPTICUBE 04             
1 41851U 16067D   26130.82687146  .00001231  00000+0  81135-4 0  9991
2 41851  98.0740 341.1581 0014380 241.8393 118.1382 15.09499192519534
AEROCUBE 8D             
1 41852U 16067E   26130.60187323  .00004606  00000+0  19428-3 0  9994
2 41852  98.0738 357.9208 0001874 260.8437  99.2586 15.23870264520342
AEROCUBE 8C             
1 41853U 16067F   26130.56718009  .00005122  00000+0  21410-3 0  9999
2 41853  98.0608 355.1604 0005304 174.8560 185.2731 15.24107314520339
CORVUS BC2              
1 42846U 17042X   26130.45931057  .00002608  00000+0  18250-3 0  9998
2 42846  97.4038 293.2912 0011943 237.6832 122.3239 15.06054249481386
CORVUS BC1              
1 42847U 17042Y   26130.39177352  .00002627  00000+0  18298-3 0  9995
2 42847  97.4071 294.0156 0011163 211.5973 148.4586 15.06226152481405
MAKERSAT 0              
1 43016U 17073D   26130.60603451  .00016865  00000+0  47262-3 0  9998
2 43016  97.4681  12.8688 0112116  47.4854 313.5789 15.30496953460717
SIRION PATHFINDER-2     
1 43759U 18099B   26130.84869707  .00002746  00000+0  15380-3 0  9994
2 43759  97.4283 180.7980 0010379  74.0025 286.2350 15.14202933406976
