OBJECT_NAME,OBJECT_ID,EPOCH,MEAN_MOTION,ECCENTRICITY,INCLINATION,RA_OF_ASC_NODE,ARG_OF_PERICENTER,MEAN_ANOMALY,EPHEMERIS_TYPE,CLASSIFICATION_TYPE,NORAD_CAT_ID,ELEMENT_SET_NO,REV_AT_EPOCH,BSTAR,MEAN_MOTION_DOT,MEAN_MOTION_DDOT
PERSEUS-M1,2014-033AF,2026-05-10T20:04:48.584352,14.95503129,.0012891,97.9624,74.3646,64.6705,295.5848,0,U,40039,999,64505,.10571E-3,.1112E-4,0
POLYITAN-1,2014-033AJ,2026-05-10T13:47:33.201312,15.31965930,.0005347,98.0978,153.3158,277.5512,82.5120,0,U,40042,999,64783,.35666E-3,.10927E-3,0
TIGRISAT,2014-033AK,2026-05-10T20:32:15.108288,14.85001024,.0049106,97.7788,281.7372,195.5507,164.4202,0,U,40043,999,64008,.18531E-3,.1559E-4,0
AEROCUBE 6A,2014-033AM,2026-05-10T09:55:52.701024,14.97684750,.0040157,97.7211,297.7835,140.2144,220.2035,0,U,40045,999,64096,.42246E-3,.497E-4,0
AEROCUBE 6B,2014-033AN,2026-05-10T10:51:33.479712,14.99109786,.0037731,97.7177,297.5373,133.5047,226.9323,0,U,40046,999,64110,.33322E-3,.4048E-4,0
CANX-4,2014-034C,2026-05-10T14:13:39.400032,14.81194255,.001379,98.3173,4.5182,128.2464,231.9991,0,U,40055,999,63896,.82048E-4,.582E-5,0
CANX-5,2014-034D,2026-05-10T14:12:01.490688,14.81211245,.0013778,98.3174,4.5582,128.4761,231.7688,0,U,40056,999,62977,.81192E-4,.575E-5,0
UKUBE-1,2014-037F,2026-05-10T17:47:53.190240,15.12952389,.0000524,98.4250,130.1001,42.2821,317.8447,0,U,40074,999,64289,.32678E-3,.5684E-4,0
BRITE-PL2 (HEWELIUSZ),2014-049B,2026-05-10T19:30:26.332128,14.94453480,.001295,97.9055,242.5376,229.9004,130.1081,0,U,40119,999,63586,.10038E-3,.1024E-4,0
AEROCUBE 5C,2015-058B,2026-05-10T19:40:16.061376,14.91239352,.0129752,64.7690,18.8194,77.9708,283.5911,0,U,40965,999,36008,.19649E-3,.2123E-4,0
AEROCUBE 7,2015-058C,2026-05-10T20:30:59.711328,14.95433094,.0119554,64.7640,1.7225,76.6463,284.7947,0,U,40966,999,36037,.24717E-3,.298E-4,0
FOX-1A (AO-85),2015-058D,2026-05-10T20:31:10.856928,14.90747135,.01289,64.7766,34.9796,71.2353,290.2693,0,U,40967,999,10800,.20677E-3,.2208E-4,0
SINOD-D 1,2015-058E,2026-05-10T18:29:21.836832,14.95610211,.0117386,64.7770,16.0599,68.0693,293.2851,0,U,40968,999,11106,.25154E-3,.3035E-4,0
SNAP-3 ALICE,2015-058G,2026-05-10T15:23:14.736192,15.53151617,.0032559,64.7528,232.9292,32.1820,328.1300,0,U,40970,999,11104,.77559E-3,.50121E-3,0
LMRST-SAT,2015-058H,2026-05-10T20:49:52.919040,14.90372621,.0130675,64.7773,31.2073,73.2531,288.2872,0,U,40971,999,10799,.20611E-3,.2187E-4,0
SNAP-3 EDDIE,2015-058J,2026-05-10T14:17:19.783968,15.54300227,.0033067,64.7445,224.0779,35.9018,324.4338,0,U,40972,999,11317,.79497E-3,.53661E-3,0
PROPCUBE 3,2015-058K,2026-05-10T20:39:31.258080,14.94000072,.0122884,64.7702,9.1345,74.7769,286.6893,0,U,40973,999,10922,.22631E-3,.2626E-4,0
BISONSAT,2015-058L,2026-05-10T19:44:17.896704,15.15431249,.0078621,64.7597,294.3681,63.5641,297.3522,0,U,40974,999,10995,.40039E-3,.8017E-4,0
SNAP-3 JIMI,2015-058M,2026-05-10T16:56:40.764768,15.01911646,.0104853,64.7664,338.3248,70.9093,290.3343,0,U,40975,999,10859,.30523E-3,.4319E-4,0
PROPCUBE 1 (FLORA),2015-058N,2026-05-10T20:32:16.825056,14.89007044,.01295,64.7757,50.9152,75.5351,286.0089,0,U,40976,999,11070,.20215E-3,.2055E-4,0
SINOD-D 3,2015-058P,2026-05-10T19:39:25.951968,14.93727012,.011798,64.7741,32.4810,73.0521,288.3485,0,U,40977,999,10917,.24517E-3,.2806E-4,0
HORYU-4,2016-012D,2026-05-10T15:40:45.232320,15.77472816,.0005757,30.9892,350.2294,4.8021,355.2690,0,U,41340,999,56485,.71947E-3,.126567E-2,0
RAVAN,2016-067B,2026-05-10T16:02:02.733216,15.51284164,.0007195,97.9940,16.0100,125.7596,234.4324,0,U,41849,999,52187,.50576E-3,.29652E-3,0
CELTEE 1,2016-067C,2026-05-10T14:31:02.826048,15.19309615,.0001909,98.0723,354.6105,61.8027,298.3398,0,U,41850,999,52017,.1542E-3,.3177E-4,0
OPTICUBE 04,2016-067D,2026-05-10T19:50:41.694144,15.09499192,.001438,98.0740,341.1581,241.8393,118.1382,0,U,41851,999,51953,.81135E-4,.1231E-4,0
AEROCUBE 8D,2016-067E,2026-05-10T14:26:41.847072,15.23870264,.0001874,98.0738,357.9208,260.8437,99.2586,0,U,41852,999,52034,.19428E-3,.4606E-4,0
AEROCUBE 8C,2016-067F,2026-05-10T13:36:44.359776,15.24107314,.0005304,98.0608,355.1604,174.8560,185.2731,0,U,41853,999,52033,.2141E-3,.5122E-4,0
CORVUS BC2,2017-042X,2026-05-10T11:01:24.433248,15.06054249,.0011943,97.4038,293.2912,237.6832,122.3239,0,U,42846,999,48138,.1825E-3,.2608E-4,0
CORVUS BC1,2017-042Y,2026-05-10T09:24:09.232128,15.06226152,.0011163,97.4071,294.0156,211.5973,148.4586,0,U,42847,999,48140,.18298E-3,.2627E-4,0
MAKERSAT 0,2017-073D,2026-05-10T14:32:41.381664,15.30496953,.0112116,97.4681,12.8688,47.4854,313.5789,0,U,43016,999,46071,.47262E-3,.16865E-3,0
SIRION PATHFINDER-2,2018-099B,2026-05-10T20:22:07.426848,15.14202933,.0010379,97.4283,180.7980,74.0025,286.2350,0,U,43759,999,40697,.1538E-3,.2746E-4,0
